{
  "type": "FeatureCollection",
  "features": [
    {
      "type": "Feature",
      "properties": {
        "norad_id": 22490,
        "name": "SCD 1",
        "group": "resource",
        "lat": 23.451004606133804,
        "lon": 87.24459093348003,
        "alt_km": 746.6674234575703,
        "timestamp": "2025-12-03T10:52:57.106067+00:00",
        "meta_object_name": "SCD 1",
        "meta_object_id": "1993-009B",
        "meta_epoch": "2025-12-03T02:19:49.859040",
        "meta_mean_motion": 14.45987403,
        "meta_eccentricity": 0.0041827,
        "meta_inclination": 24.971,
        "meta_ra_of_asc_node": 338.2102,
        "meta_arg_of_pericenter": 222.4494,
        "meta_mean_anomaly": 188.6826,
        "meta_ephemeris_type": 0,
        "meta_classification_type": "U",
        "meta_norad_cat_id": 22490,
        "meta_element_set_no": 999,
        "meta_rev_at_epoch": 73270,
        "meta_bstar": 0.00012677,
        "meta_mean_motion_dot": 6.5e-06,
        "meta_mean_motion_ddot": 0,
        "tle_line1": "1 22490U 93009B   25337.09710485  .00000650  00000+0  12677-3 0  9998",
        "tle_line2": "2 22490  24.9710 338.2102 0041827 222.4494 188.6826 14.45987403732703"
      },
      "geometry": {
        "type": "Point",
        "coordinates": [
          87.24459093348003,
          23.451004606133804
        ]
      }
    },
    {
      "type": "Feature",
      "properties": {
        "norad_id": 25397,
        "name": "TECHSAT 1B (GO-32)",
        "group": "resource",
        "lat": 77.97948908848888,
        "lon": -171.51153061740914,
        "alt_km": 801.8173824180221,
        "timestamp": "2025-12-03T10:52:57.106098+00:00",
        "meta_object_name": "TECHSAT 1B (GO-32)",
        "meta_object_id": "1998-043D",
        "meta_epoch": "2025-12-02T22:37:23.051424",
        "meta_mean_motion": 14.24372494,
        "meta_eccentricity": 0.0002246,
        "meta_inclination": 98.9913,
        "meta_ra_of_asc_node": 319.9291,
        "meta_arg_of_pericenter": 73.6007,
        "meta_mean_anomaly": 286.5418,
        "meta_ephemeris_type": 0,
        "meta_classification_type": "U",
        "meta_norad_cat_id": 25397,
        "meta_element_set_no": 999,
        "meta_rev_at_epoch": 42339,
        "meta_bstar": 8.0125e-05,
        "meta_mean_motion_dot": 1.39e-06,
        "meta_mean_motion_ddot": 0,
        "tle_line1": "1 25397U 98043D   25336.94262791  .00000139  00000+0  80125-4 0  9991",
        "tle_line2": "2 25397  98.9913 319.9291 0002246  73.6007 286.5418 14.24372494423393"
      },
      "geometry": {
        "type": "Point",
        "coordinates": [
          -171.51153061740914,
          77.97948908848888
        ]
      }
    },
    {
      "type": "Feature",
      "properties": {
        "norad_id": 25504,
        "name": "SCD 2",
        "group": "resource",
        "lat": 7.854277190771233,
        "lon": 1.9377573584769074,
        "alt_km": 730.4521784211192,
        "timestamp": "2025-12-03T10:52:57.106114+00:00",
        "meta_object_name": "SCD 2",
        "meta_object_id": "1998-060A",
        "meta_epoch": "2025-12-02T08:22:08.651136",
        "meta_mean_motion": 14.45414,
        "meta_eccentricity": 0.00167262,
        "meta_inclination": 24.9937,
        "meta_ra_of_asc_node": 205.9699,
        "meta_arg_of_pericenter": 202.5525,
        "meta_mean_anomaly": 318.5622,
        "meta_ephemeris_type": 0,
        "meta_classification_type": "U",
        "meta_norad_cat_id": 25504,
        "meta_element_set_no": 999,
        "meta_rev_at_epoch": 43181,
        "meta_bstar": 9.8916166e-05,
        "meta_mean_motion_dot": 5.36e-06,
        "meta_mean_motion_ddot": 0,
        "tle_line1": "1 25504U 98060A   25336.34871124  .00000536  00000+0  98916-4 0  9998",
        "tle_line2": "2 25504  24.9937 205.9699 0016726 202.5525 318.5622 14.45414000431812"
      },
      "geometry": {
        "type": "Point",
        "coordinates": [
          1.9377573584769074,
          7.854277190771233
        ]
      }
    },
    {
      "type": "Feature",
      "properties": {
        "norad_id": 25757,
        "name": "DLR-TUBSAT",
        "group": "resource",
        "lat": 74.9828239638427,
        "lon": 176.27867400761008,
        "alt_km": 715.5357688164613,
        "timestamp": "2025-12-03T10:52:57.106128+00:00",
        "meta_object_name": "DLR-TUBSAT",
        "meta_object_id": "1999-029B",
        "meta_epoch": "2025-12-03T05:27:06.499584",
        "meta_mean_motion": 14.52351559,
        "meta_eccentricity": 0.0013388,
        "meta_inclination": 98.6555,
        "meta_ra_of_asc_node": 321.4478,
        "meta_arg_of_pericenter": 222.7864,
        "meta_mean_anomaly": 137.2289,
        "meta_ephemeris_type": 0,
        "meta_classification_type": "U",
        "meta_norad_cat_id": 25757,
        "meta_element_set_no": 999,
        "meta_rev_at_epoch": 40480,
        "meta_bstar": 6.0372e-05,
        "meta_mean_motion_dot": 1.97e-06,
        "meta_mean_motion_ddot": 0,
        "tle_line1": "1 25757U 99029B   25337.22715856  .00000197  00000+0  60372-4 0  9999",
        "tle_line2": "2 25757  98.6555 321.4478 0013388 222.7864 137.2289 14.52351559404807"
      },
      "geometry": {
        "type": "Point",
        "coordinates": [
          176.27867400761008,
          74.9828239638427
        ]
      }
    },
    {
      "type": "Feature",
      "properties": {
        "norad_id": 25994,
        "name": "TERRA",
        "group": "resource",
        "lat": -59.26083938373716,
        "lon": -164.1592268423715,
        "alt_km": 698.6273563134937,
        "timestamp": "2025-12-03T10:52:57.106141+00:00",
        "meta_object_name": "TERRA",
        "meta_object_id": "1999-068A",
        "meta_epoch": "2025-12-03T03:19:40.019232",
        "meta_mean_motion": 14.60934154,
        "meta_eccentricity": 0.0003395,
        "meta_inclination": 97.9762,
        "meta_ra_of_asc_node": 29.1747,
        "meta_arg_of_pericenter": 117.151,
        "meta_mean_anomaly": 268.409,
        "meta_ephemeris_type": 0,
        "meta_classification_type": "U",
        "meta_norad_cat_id": 25994,
        "meta_element_set_no": 999,
        "meta_rev_at_epoch": 38098,
        "meta_bstar": 0.0001522,
        "meta_mean_motion_dot": 7.01e-06,
        "meta_mean_motion_ddot": 0,
        "tle_line1": "1 25994U 99068A   25337.13865763  .00000701  00000+0  15220-3 0  9990",
        "tle_line2": "2 25994  97.9762  29.1747 0003395 117.1510 268.4090 14.60934154380981"
      },
      "geometry": {
        "type": "Point",
        "coordinates": [
          -164.1592268423715,
          -59.26083938373716
        ]
      }
    },
    {
      "type": "Feature",
      "properties": {
        "norad_id": 27004,
        "name": "MAROC-TUBSAT",
        "group": "resource",
        "lat": 14.564143987961852,
        "lon": 143.16423047189636,
        "alt_km": 999.3725387360792,
        "timestamp": "2025-12-03T10:52:57.106154+00:00",
        "meta_object_name": "MAROC-TUBSAT",
        "meta_object_id": "2001-056D",
        "meta_epoch": "2025-12-03T00:51:45.195264",
        "meta_mean_motion": 13.70252146,
        "meta_eccentricity": 0.0019107,
        "meta_inclination": 99.7912,
        "meta_ra_of_asc_node": 145.311,
        "meta_arg_of_pericenter": 285.989,
        "meta_mean_anomaly": 190.2699,
        "meta_ephemeris_type": 0,
        "meta_classification_type": "U",
        "meta_norad_cat_id": 27004,
        "meta_element_set_no": 999,
        "meta_rev_at_epoch": 19932,
        "meta_bstar": 3.3076e-05,
        "meta_mean_motion_dot": -1.8e-07,
        "meta_mean_motion_ddot": 0,
        "tle_line1": "1 27004U 01056D   25337.03593976 -.00000018  00000+0  33076-4 0  9999",
        "tle_line2": "2 27004  99.7912 145.3110 0019107 285.9890 190.2699 13.70252146199327"
      },
      "geometry": {
        "type": "Point",
        "coordinates": [
          143.16423047189636,
          14.564143987961852
        ]
      }
    },
    {
      "type": "Feature",
      "properties": {
        "norad_id": 27424,
        "name": "AQUA",
        "group": "resource",
        "lat": 80.62415011198956,
        "lon": -125.34858007149083,
        "alt_km": 679.5390811708667,
        "timestamp": "2025-12-03T10:52:57.106166+00:00",
        "meta_object_name": "AQUA",
        "meta_object_id": "2002-022A",
        "meta_epoch": "2025-12-03T04:29:29.314176",
        "meta_mean_motion": 14.61770701,
        "meta_eccentricity": 7.46e-05,
        "meta_inclination": 98.4024,
        "meta_ra_of_asc_node": 297.9119,
        "meta_arg_of_pericenter": 108.0837,
        "meta_mean_anomaly": 17.2527,
        "meta_ephemeris_type": 0,
        "meta_classification_type": "U",
        "meta_norad_cat_id": 27424,
        "meta_element_set_no": 999,
        "meta_rev_at_epoch": 25463,
        "meta_bstar": 0.0003102,
        "meta_mean_motion_dot": 1.498e-05,
        "meta_mean_motion_ddot": 0,
        "tle_line1": "1 27424U 02022A   25337.18714484  .00001498  00000+0  31020-3 0  9992",
        "tle_line2": "2 27424  98.4024 297.9119 0000746 108.0837  17.2527 14.61770701254638"
      },
      "geometry": {
        "type": "Point",
        "coordinates": [
          -125.34858007149083,
          80.62415011198956
        ]
      }
    }
  ]
}